STARLINK-1502
1 45764U 20038AL  26090.75512579  .00098331  00000+0  16828-2 0  9997
2 45764  53.0499 100.3531 0006188  61.9414 298.2220 15.50463573320053
